IRIDIUM 144             
1 43249U 18030A   24024.82175107  .00000080  00000+0  21548-4 0  9998
2 43249  86.3976 295.8339 0001964  87.4582 272.6839 14.34217678304812
IRIDIUM 149             
1 43250U 18030B   24024.82809416  .00000206  00000+0  66503-4 0  9997
2 43250  86.3973 295.8078 0001887  90.2697 269.8715 14.34217468304834
IRIDIUM 157             
1 43251U 18030C   24024.84711651  .00000603  00000+0  20809-3 0  9992
2 43251  86.3976 295.8330 0002364  85.0515 275.0951 14.34214388304818
IRIDIUM 140             
1 43252U 18030D   24024.79638068  .00000100  00000+0  28651-4 0  9993
2 43252  86.3975 295.8691 0001666  81.2194 278.9191 14.34217465304865
IRIDIUM 145             
1 43253U 18030E   24024.85346418  .00000219  00000+0  70998-4 0  9998
2 43253  86.3973 295.8196 0001829  91.7729 268.3676 14.34218499304808
IRIDIUM 146             
1 43254U 18030F   24024.90420416  .00000326  00000+0  10923-3 0  9996
2 43254  86.3974 295.8134 0001776  91.5323 268.6077 14.34219169304826
IRIDIUM 148             
1 43255U 18030G   24024.80271617  .00000566  00000+0  19510-3 0  9990
2 43255  86.3976 295.8861 0002168  89.4049 270.7395 14.34216215304841
IRIDIUM 142             
1 43256U 18030H   24024.84077531  .00000606  00000+0  20946-3 0  9994
2 43256  86.3973 295.7907 0001884  92.0109 268.1303 14.34219388304811
